start=new Date('2022-12-19T00:00:00.000Z').valueOf();
sats=[{"GP_ID":"220871809","OBJECT_NAME":"STARLINK-4579","DECAY_DATE":null,"RA_OF_ASC_NODE":"231.3706","PERIAPSIS":"561.716","ELEMENT_SET_NO":"999","CENTER_NAME":"EARTH","COUNTRY_CODE":"US","TLE_LINE2":"2 53677  97.6551 231.3706 0001849  52.3379 307.8013 15.01264101 16657","ARG_OF_PERICENTER":"52.3379","CLASSIFICATION_TYPE":"U","MEAN_MOTION_DDOT":"0.0000000000000","OBJECT_ID":"2022-105AF","TIME_SYSTEM":"UTC","SITE":"AFWTR","RCS_SIZE":"LARGE","FILE":"3709623","SEMIMAJOR_AXIS":"6941.134","MEAN_MOTION_DOT":"0.00000681","EPHEMERIS_TYPE":"0","BSTAR":"0.00005759800000","OBJECT_TYPE":"PAYLOAD","EPOCH":"2022-12-18T17:24:13.431744","MEAN_ANOMALY":"307.8013","PERIOD":"95.919","REF_FRAME":"TEME","TLE_LINE1":"1 53677U 22105AF  22352.72515546  .00000681  00000-0  57598-4 0  9990","INCLINATION":"97.6551","APOAPSIS":"564.283","MEAN_MOTION":"15.01264101","REV_AT_EPOCH":"1665","NORAD_CAT_ID":"53677","LAUNCH_DATE":"2022-08-31","ECCENTRICITY":"0.00018490","MEAN_ELEMENT_THEORY":"SGP4"},{"RA_OF_ASC_NODE":"231.5615","TLE_LINE2":"2 53678  97.6540 231.5615 0001667  87.1935 272.9480 15.01259554 16688","COUNTRY_CODE":"US","CENTER_NAME":"EARTH","PERIAPSIS":"561.856","ELEMENT_SET_NO":"999","MEAN_MOTION_DDOT":"0.0000000000000","CLASSIFICATION_TYPE":"U","ARG_OF_PERICENTER":"87.1935","TIME_SYSTEM":"UTC","OBJECT_ID":"2022-105AG","OBJECT_NAME":"STARLINK-4418","GP_ID":"220871593","DECAY_DATE":null,"TLE_LINE1":"1 53678U 22105AG  22352.91771078  .00001341  00000-0  10900-3 0  9995","REF_FRAME":"TEME","MEAN_MOTION":"15.01259554","APOAPSIS":"564.170","INCLINATION":"97.6540","REV_AT_EPOCH":"1668","MEAN_ELEMENT_THEORY":"SGP4","LAUNCH_DATE":"2022-08-31","ECCENTRICITY":"0.00016670","NORAD_CAT_ID":"53678","MEAN_MOTION_DOT":"0.00001341","FILE":"3709623","RCS_SIZE":"LARGE","SEMIMAJOR_AXIS":"6941.148","SITE":"AFWTR","EPHEMERIS_TYPE":"0","BSTAR":"0.00010900000000","MEAN_ANOMALY":"272.9480","EPOCH":"2022-12-18T22:01:30.211392","OBJECT_TYPE":"PAYLOAD","PERIOD":"95.919"},{"ELEMENT_SET_NO":"999","PERIAPSIS":"561.746","CENTER_NAME":"EARTH","COUNTRY_CODE":"US","TLE_LINE2":"2 53679  97.6543 231.3016 0001817  89.4110 270.7323 15.01261565 16645","RA_OF_ASC_NODE":"231.3016","OBJECT_ID":"2022-105AH","TIME_SYSTEM":"UTC","ARG_OF_PERICENTER":"89.4110","MEAN_MOTION_DDOT":"0.0000000000000","CLASSIFICATION_TYPE":"U","DECAY_DATE":null,"OBJECT_NAME":"STARLINK-4632","GP_ID":"220872659","INCLINATION":"97.6543","APOAPSIS":"564.268","MEAN_MOTION":"15.01261565","REF_FRAME":"TEME","TLE_LINE1":"1 53679U 22105AH  22352.65480186 -.00000096  00000-0 -28601-5 0  9991","NORAD_CAT_ID":"53679","ECCENTRICITY":"0.00018170","LAUNCH_DATE":"2022-08-31","MEAN_ELEMENT_THEORY":"SGP4","REV_AT_EPOCH":"1664","BSTAR":"-0.00000286010000","EPHEMERIS_TYPE":"0","SITE":"AFWTR","SEMIMAJOR_AXIS":"6941.142","FILE":"3709623","RCS_SIZE":"LARGE","MEAN_MOTION_DOT":"-0.00000096","PERIOD":"95.919","OBJECT_TYPE":"PAYLOAD","EPOCH":"2022-12-18T15:42:54.880704","MEAN_ANOMALY":"270.7323"},{"MEAN_MOTION":"15.01252415","APOAPSIS":"564.292","INCLINATION":"97.6536","TLE_LINE1":"1 53680U 22105AJ  22352.91401453 -.00000387  00000-0 -25581-4 0  9998","REF_FRAME":"TEME","MEAN_ELEMENT_THEORY":"SGP4","ECCENTRICITY":"0.00018110","LAUNCH_DATE":"2022-08-31","NORAD_CAT_ID":"53680","REV_AT_EPOCH":"1668","BSTAR":"-0.00002558100000","EPHEMERIS_TYPE":"0","MEAN_MOTION_DOT":"-0.00000387","FILE":"3709623","RCS_SIZE":"LARGE","SEMIMAJOR_AXIS":"6941.170","SITE":"AFWTR","PERIOD":"95.920","MEAN_ANOMALY":"250.9792","OBJECT_TYPE":"PAYLOAD","EPOCH":"2022-12-18T21:56:10.855392","TLE_LINE2":"2 53680  97.6536 231.5574 0001811 109.1629 250.9792 15.01252415 16687","COUNTRY_CODE":"US","CENTER_NAME":"EARTH","ELEMENT_SET_NO":"999","PERIAPSIS":"561.778","RA_OF_ASC_NODE":"231.5574","TIME_SYSTEM":"UTC","OBJECT_ID":"2022-105AJ","MEAN_MOTION_DDOT":"0.0000000000000","CLASSIFICATION_TYPE":"U","ARG_OF_PERICENTER":"109.1629","DECAY_DATE":null,"OBJECT_NAME":"STARLINK-4630","GP_ID":"220872446"},{"DECAY_DATE":null,"OBJECT_NAME":"STARLINK-4424","GP_ID":"220871380","TIME_SYSTEM":"UTC","OBJECT_ID":"2022-105AK","MEAN_MOTION_DDOT":"0.0000000000000","CLASSIFICATION_TYPE":"U","ARG_OF_PERICENTER":"90.8038","COUNTRY_CODE":"US","TLE_LINE2":"2 53681  97.6537 231.5619 0001815  90.8038 269.3394 15.01258781 16687","ELEMENT_SET_NO":"999","PERIAPSIS":"561.756","CENTER_NAME":"EARTH","RA_OF_ASC_NODE":"231.5619","PERIOD":"95.920","MEAN_ANOMALY":"269.3394","OBJECT_TYPE":"PAYLOAD","EPOCH":"2022-12-18T22:01:51.726720","EPHEMERIS_TYPE":"0","BSTAR":"-0.00001086100000","RCS_SIZE":"LARGE","FILE":"3709623","SEMIMAJOR_AXIS":"6941.151","MEAN_MOTION_DOT":"-0.00000198","SITE":"AFWTR","MEAN_ELEMENT_THEORY":"SGP4","NORAD_CAT_ID":"53681","LAUNCH_DATE":"2022-08-31","ECCENTRICITY":"0.00018150","REV_AT_EPOCH":"1668","APOAPSIS":"564.275","MEAN_MOTION":"15.01258781","INCLINATION":"97.6537","TLE_LINE1":"1 53681U 22105AK  22352.91795980 -.00000198  00000-0 -10861-4 0  9995","REF_FRAME":"TEME"},{"COUNTRY_CODE":"US","TLE_LINE2":"2 53682  97.6535 231.5540 0001670 112.5885 247.5516 15.01251427 16684","PERIAPSIS":"561.879","ELEMENT_SET_NO":"999","CENTER_NAME":"EARTH","RA_OF_ASC_NODE":"231.5540","TIME_SYSTEM":"UTC","OBJECT_ID":"2022-105AL","CLASSIFICATION_TYPE":"U","MEAN_MOTION_DDOT":"0.0000000000000","ARG_OF_PERICENTER":"112.5885","DECAY_DATE":null,"GP_ID":"220872023","OBJECT_NAME":"STARLINK-4438","APOAPSIS":"564.197","MEAN_MOTION":"15.01251427","INCLINATION":"97.6535","TLE_LINE1":"1 53682U 22105AL  22352.91055259 -.00000308  00000-0 -19385-4 0  9997","REF_FRAME":"TEME","MEAN_ELEMENT_THEORY":"SGP4","NORAD_CAT_ID":"53682","LAUNCH_DATE":"2022-08-31","ECCENTRICITY":"0.00016700","REV_AT_EPOCH":"1668","EPHEMERIS_TYPE":"0","BSTAR":"-0.00001938500000","FILE":"3709623","SEMIMAJOR_AXIS":"6941.173","RCS_SIZE":"LARGE","MEAN_MOTION_DOT":"-0.00000308","SITE":"AFWTR","PERIOD":"95.920","MEAN_ANOMALY":"247.5516","OBJECT_TYPE":"PAYLOAD","EPOCH":"2022-12-18T21:51:11.743776"},{"TLE_LINE1":"1 53683U 22105AM  22352.91585327  .00001031  00000-0  84849-4 0  9991","REF_FRAME":"TEME","APOAPSIS":"564.188","MEAN_MOTION":"15.01260763","INCLINATION":"97.6536","REV_AT_EPOCH":"1668","MEAN_ELEMENT_THEORY":"SGP4","NORAD_CAT_ID":"53683","LAUNCH_DATE":"2022-08-31","ECCENTRICITY":"0.00016980","RCS_SIZE":"LARGE","FILE":"3709623","SEMIMAJOR_AXIS":"6941.144","MEAN_MOTION_DOT":"0.00001031","SITE":"AFWTR","EPHEMERIS_TYPE":"0","BSTAR":"0.00008484900000","MEAN_ANOMALY":"248.9044","EPOCH":"2022-12-18T21:58:49.722528","OBJECT_TYPE":"PAYLOAD","PERIOD":"95.919","RA_OF_ASC_NODE":"231.5597","COUNTRY_CODE":"US","TLE_LINE2":"2 53683  97.6536 231.5597 0001698 111.2362 248.9044 15.01260763 16688","PERIAPSIS":"561.831","ELEMENT_SET_NO":"999","CENTER_NAME":"EARTH","MEAN_MOTION_DDOT":"0.0000000000000","CLASSIFICATION_TYPE":"U","ARG_OF_PERICENTER":"111.2362","TIME_SYSTEM":"UTC","OBJECT_ID":"2022-105AM","OBJECT_NAME":"STARLINK-4625","GP_ID":"220872236","DECAY_DATE":null},{"TIME_SYSTEM":"UTC","OBJECT_ID":"2022-105AN","MEAN_MOTION_DDOT":"0.0000000000000","CLASSIFICATION_TYPE":"U","ARG_OF_PERICENTER":"51.9718","COUNTRY_CODE":"US","TLE_LINE2":"2 53684  97.6557 231.2769 0002178  51.9718 308.1702 15.01255754 16638","ELEMENT_SET_NO":"999","PERIAPSIS":"561.513","CENTER_NAME":"EARTH","RA_OF_ASC_NODE":"231.2769","DECAY_DATE":null,"OBJECT_NAME":"STARLINK-4624","GP_ID":"220872870","MEAN_ELEMENT_THEORY":"SGP4","NORAD_CAT_ID":"53684","ECCENTRICITY":"0.00021780","LAUNCH_DATE":"2022-08-31","REV_AT_EPOCH":"1663","APOAPSIS":"564.537","MEAN_MOTION":"15.01255754","INCLINATION":"97.6557","TLE_LINE1":"1 53684U 22105AN  22352.62913042  .00001109  00000-0  90957-4 0  9992","REF_FRAME":"TEME","PERIOD":"95.920","MEAN_ANOMALY":"308.1702","EPOCH":"2022-12-18T15:05:56.868288","OBJECT_TYPE":"PAYLOAD","EPHEMERIS_TYPE":"0","BSTAR":"0.00009095700000","FILE":"3709623","SEMIMAJOR_AXIS":"6941.160","RCS_SIZE":"LARGE","MEAN_MOTION_DOT":"0.00001109","SITE":"AFWTR"},{"OBJECT_NAME":"STARLINK-4626","GP_ID":"220871810","DECAY_DATE":null,"RA_OF_ASC_NODE":"231.5557","COUNTRY_CODE":"US","TLE_LINE2":"2 53685  97.6535 231.5557 0001587 110.7402 249.3992 15.01266059 16682","ELEMENT_SET_NO":"999","PERIAPSIS":"561.892","CENTER_NAME":"EARTH","MEAN_MOTION_DDOT":"0.0000000000000","CLASSIFICATION_TYPE":"U","ARG_OF_PERICENTER":"110.7402","TIME_SYSTEM":"UTC","OBJECT_ID":"2022-105AP","FILE":"3709623","RCS_SIZE":"LARGE","SEMIMAJOR_AXIS":"6941.128","MEAN_MOTION_DOT":"0.00002738","SITE":"AFWTR","EPHEMERIS_TYPE":"0","BSTAR":"0.00021762000000","MEAN_ANOMALY":"249.3992","OBJECT_TYPE":"PAYLOAD","EPOCH":"2022-12-18T21:53:30.237792","PERIOD":"95.919","TLE_LINE1":"1 53685U 22105AP  22352.91215553  .00002738  00000-0  21762-3 0  9993","REF_FRAME":"TEME","APOAPSIS":"564.095","MEAN_MOTION":"15.01266059","INCLINATION":"97.6535","REV_AT_EPOCH":"1668","MEAN_ELEMENT_THEORY":"SGP4","NORAD_CAT_ID":"53685","LAUNCH_DATE":"2022-08-31","ECCENTRICITY":"0.00015870"},{"DECAY_DATE":null,"GP_ID":"220871594","OBJECT_NAME":"STARLINK-4467","TIME_SYSTEM":"UTC","OBJECT_ID":"2022-105AQ","CLASSIFICATION_TYPE":"U","MEAN_MOTION_DDOT":"0.0000000000000","ARG_OF_PERICENTER":"109.9311","TLE_LINE2":"2 53686  97.6541 231.5514 0001670 109.9311 250.2093 15.01265276 16688","COUNTRY_CODE":"US","CENTER_NAME":"EARTH","PERIAPSIS":"561.836","ELEMENT_SET_NO":"999","RA_OF_ASC_NODE":"231.5514","PERIOD":"95.919","MEAN_ANOMALY":"250.2093","EPOCH":"2022-12-18T21:48:10.278720","OBJECT_TYPE":"PAYLOAD","BSTAR":"0.00030347000000","EPHEMERIS_TYPE":"0","MEAN_MOTION_DOT":"0.00003842","FILE":"3709623","SEMIMAJOR_AXIS":"6941.131","RCS_SIZE":"MEDIUM","SITE":"AFWTR","MEAN_ELEMENT_THEORY":"SGP4","ECCENTRICITY":"0.00016700","LAUNCH_DATE":"2022-08-31","NORAD_CAT_ID":"53686","REV_AT_EPOCH":"1668","MEAN_MOTION":"15.01265276","APOAPSIS":"564.155","INCLINATION":"97.6541","TLE_LINE1":"1 53686U 22105AQ  22352.90845230  .00003842  00000-0  30347-3 0  9990","REF_FRAME":"TEME"}];
